NORAD_CAT_ID,OBJECT_NAME,OBJECT_TYPE,EPOCH,MEAN_MOTION,ECCENTRICITY,INCLINATION,RA_OF_ASC_NODE,ARG_OF_PERICENTER,MEAN_ANOMALY,BSTAR,MEAN_MOTION_DOT,MEAN_MOTION_DDOT,TLE_LINE0,TLE_LINE1,TLE_LINE2,SEMIMAJOR_AXIS,PERIOD,APOGEE,PERIGEE,DECAYED
54064.0,STARLINK-5172,PAYLOAD,2023-06-15 03:05:52,15.08820965,0.0001169,53.2181,102.0159,95.9214,264.1912,0.00017693,2.528e-05,0.0,0 STARLINK-5172,1 54064U 22136P   23166.12907598  .00002528  00000-0  17693-3 0  9998,2 54064  53.2181 102.0159 0001169  95.9214 264.1912 15.08820965 37207,6917.939,95.439,540.612,538.995,0.0
54064.0,STARLINK-5172,PAYLOAD,2023-06-15 06:16:38,15.08826632,0.0001116,53.2182,101.421,93.4688,266.6431,0.00012404,1.686e-05,0.0,0 STARLINK-5172,1 54064U 22136P   23166.26155526  .00001686  00000-0  12404-3 0  9998,2 54064  53.2182 101.4210 0001116  93.4688 266.6431 15.08826632 36747,6917.921,95.438,540.558,539.014,0.0
54064.0,STARLINK-5172,PAYLOAD,2023-06-16 01:21:15,15.08844926,0.0001193,53.2177,97.8535,86.7348,273.378,6.7576e-05,7.88e-06,0.0,0 STARLINK-5172,1 54064U 22136P   23167.05642659  .00000788  00000-0  67576-4 0  9997,2 54064  53.2177  97.8535 0001193  86.7348 273.3780 15.08844926 37347,6917.865,95.437,540.556,538.905,0.0
54064.0,STARLINK-5172,PAYLOAD,2023-06-16 12:28:57,15.08842813,0.0001358,53.2192,95.7719,78.9464,281.1681,5.9048e-05,6.52e-06,0.0,0 STARLINK-5172,1 54064U 22136P   23167.52010728  .00000652  00000-0  59048-4 0  9990,2 54064  53.2192  95.7719 0001358  78.9464 281.1681 15.08842813 36934,6917.872,95.437,540.676,538.797,0.0
54064.0,STARLINK-5172,PAYLOAD,2023-06-16 18:50:29,15.08842484,0.0001316,53.2185,94.5824,78.9273,281.1867,4.7569e-05,4.69e-06,0.0,0 STARLINK-5172,1 54064U 22136P   23167.78506698  .00000469  00000-0  47569-4 0  9995,2 54064  53.2185  94.5824 0001316  78.9273 281.1867 15.08842484 36976,6917.873,95.437,540.648,538.827,0.0
54064.0,STARLINK-5172,PAYLOAD,2023-06-17 04:22:48,15.0884705,0.0001183,53.2181,92.7978,80.2319,279.8807,7.5887e-05,9.2e-06,0.0,0 STARLINK-5172,1 54064U 22136P   23168.18250149  .00000920  00000-0  75887-4 0  9993,2 54064  53.2181  92.7978 0001183  80.2319 279.8807 15.08847050 37514,6917.859,95.437,540.542,538.905,0.0
54064.0,STARLINK-5172,PAYLOAD,2023-06-17 12:19:44,15.08836662,0.0001207,53.2174,91.3111,88.4693,271.6437,-2.5206e-05,-6.89e-06,0.0,0 STARLINK-5172,1 54064U 22136P   23168.51371071 -.00000689  00000-0 -25206-4 0  9992,2 54064  53.2174  91.3111 0001207  88.4693 271.6437 15.08836662 37080,6917.891,95.438,540.591,538.921,0.0
54064.0,STARLINK-5172,PAYLOAD,2023-06-18 01:02:50,15.08833517,0.0001186,53.2177,88.9292,108.6207,251.4914,-0.00018764,-3.272e-05,0.0,0 STARLINK-5172,1 54064U 22136P   23169.04363930 -.00003272  00000-0 -18764-3 0  9997,2 54064  53.2177  88.9292 0001186 108.6207 251.4914 15.08833517 37641,6917.9,95.438,540.586,538.945,0.0
54064.0,STARLINK-5172,PAYLOAD,2023-06-18 12:10:32,15.08838008,0.0001372,53.2195,86.8487,101.2681,258.8465,-0.00012364,-2.255e-05,0.0,0 STARLINK-5172,1 54064U 22136P   23169.50731554 -.00002255  00000-0 -12364-3 0  9999,2 54064  53.2195  86.8487 0001372 101.2681 258.8465 15.08838008 37233,6917.886,95.438,540.701,538.802,0.0
54064.0,STARLINK-5172,PAYLOAD,2023-06-18 18:32:04,15.08837969,0.0001187,53.2177,85.6605,91.6374,268.4755,-1.2475e-05,-4.86e-06,0.0,0 STARLINK-5172,1 54064U 22136P   23169.77227195 -.00000486  00000-0 -12475-4 0  9997,2 54064  53.2177  85.6605 0001187  91.6374 268.4755 15.08837969 37758,6917.887,95.438,540.573,538.93,0.0
54064.0,STARLINK-5172,PAYLOAD,2023-06-19 04:04:22,15.08847415,0.0001244,53.2183,83.8761,93.6203,266.4931,-4.9083e-06,-3.66e-06,0.0,0 STARLINK-5172,1 54064U 22136P   23170.16970580 -.00000366  00000-0 -49083-5 0  9998,2 54064  53.2183  83.8761 0001244  93.6203 266.4931 15.08847415 37813,6917.858,95.437,540.583,538.862,0.0
54064.0,STARLINK-5172,PAYLOAD,2023-06-20 03:55:10,15.08837967,0.0001133,53.2184,79.4161,88.0474,272.0648,8.6637e-05,1.091e-05,0.0,0 STARLINK-5172,1 54064U 22136P   23171.16331074  .00001091  00000-0  86637-4 0  9997,2 54064  53.2184  79.4161 0001133  88.0474 272.0648 15.08837967 37969,6917.887,95.438,540.535,538.968,0.0
54064.0,STARLINK-5172,PAYLOAD,2023-06-20 21:24:24,15.08845862,0.000117,53.2178,76.1457,88.1583,271.9543,5.2495e-05,5.48e-06,0.0,0 STARLINK-5172,1 54064U 22136P   23171.89194680  .00000548  00000-0  52495-4 0  9998,2 54064  53.2178  76.1457 0001170  88.1583 271.9543 15.08845862 37591,6917.862,95.437,540.537,538.918,0.0
54064.0,STARLINK-5172,PAYLOAD,2023-06-21 00:35:09,15.08851655,0.0001205,53.2177,75.551,87.4799,272.6331,8.841e-05,1.12e-05,0.0,0 STARLINK-5172,1 54064U 22136P   23172.02442120  .00001120  00000-0  88410-4 0  9992,2 54064  53.2177  75.5510 0001205  87.4799 272.6331 15.08851655 38099,6917.845,95.437,540.543,538.876,0.0
54064.0,STARLINK-5172,PAYLOAD,2023-06-21 10:07:29,15.08847505,0.0001087,53.2175,73.7681,87.7279,272.3837,-2.8617e-05,-7.43e-06,0.0,0 STARLINK-5172,1 54064U 22136P   23172.42186451 -.00000743  00000-0 -28617-4 0  9993,2 54064  53.2175  73.7681 0001087  87.7279 272.3837 15.08847505 38154,6917.857,95.437,540.474,538.97,0.0
54064.0,STARLINK-5172,PAYLOAD,2023-06-22 02:01:22,15.08830859,0.0001218,53.2178,70.794,79.2966,280.8163,-0.00012073,-2.208e-05,0.0,0 STARLINK-5172,1 54064U 22136P   23173.08428281 -.00002208  00000-0 -12073-3 0  9992,2 54064  53.2178  70.7940 0001218  79.2966 280.8163 15.08830859 38258,6917.908,95.438,540.616,538.931,0.0
54064.0,STARLINK-5172,PAYLOAD,2023-06-22 17:55:13,15.08838353,0.000121,53.2178,67.8201,85.371,274.742,-8.8965e-05,-1.703e-05,0.0,0 STARLINK-5172,1 54064U 22136P   23173.74667960 -.00001703  00000-0 -88965-4 0  9997,2 54064  53.2178  67.8201 0001210  85.3710 274.7420 15.08838353 38358,6917.885,95.438,540.587,538.913,0.0
54064.0,STARLINK-5172,PAYLOAD,2023-06-23 01:52:08,15.08846229,0.000117,53.2177,66.3334,82.388,277.7245,1.1974e-06,-2.69e-06,0.0,0 STARLINK-5172,1 54064U 22136P   23174.07787111 -.00000269  00000-0  11974-5 0  9997,2 54064  53.2177  66.3334 0001170  82.3880 277.7245 15.08846229 38403,6917.861,95.437,540.536,538.917,0.0
54064.0,STARLINK-5172,PAYLOAD,2023-06-23 17:46:00,15.08826189,0.0001238,53.2176,63.3602,89.5757,270.5377,8.4658e-05,1.059e-05,0.0,0 STARLINK-5172,1 54064U 22136P   23174.74028122  .00001059  00000-0  84658-4 0  9996,2 54064  53.2176  63.3602 0001238  89.5757 270.5377 15.08826189 38505,6917.923,95.438,540.644,538.931,0.0
54064.0,STARLINK-5172,PAYLOAD,2023-06-24 01:42:55,15.08837697,0.0001302,53.2177,61.8729,87.3604,272.7537,0.00010451,1.376e-05,0.0,0 STARLINK-5172,1 54064U 22136P   23175.07147533  .00001376  00000-0  10451-3 0  9992,2 54064  53.2177  61.8729 0001302  87.3604 272.7537 15.08837697 38551,6917.887,95.438,540.653,538.852,0.0
54064.0,STARLINK-5172,PAYLOAD,2023-06-24 09:39:51,15.08833483,0.000129,53.2178,60.386,83.0301,277.0838,5.0742e-05,5.2e-06,0.0,0 STARLINK-5172,1 54064U 22136P   23175.40268082  .00000520  00000-0  50742-4 0  9990,2 54064  53.2178  60.3860 0001290  83.0301 277.0838 15.08833483 38602,6917.9,95.438,540.658,538.873,0.0
54064.0,STARLINK-5172,PAYLOAD,2023-06-25 03:09:05,15.08848291,0.0001273,53.2178,57.1143,86.8542,273.2596,4.3479e-05,4.04e-06,0.0,0 STARLINK-5172,1 54064U 22136P   23176.13131269  .00000404  00000-0  43479-4 0  9997,2 54064  53.2178  57.1143 0001273  86.8542 273.2596 15.08848291 38713,6917.855,95.437,540.601,538.839,0.0
54064.0,STARLINK-5172,PAYLOAD,2023-06-25 09:30:39,15.08833125,0.0001088,53.2177,55.9262,85.6206,274.491,-6.6023e-05,-1.338e-05,0.0,0 STARLINK-5172,1 54064U 22136P   23176.39628503 -.00001338  00000-0 -66023-4 0  9996,2 54064  53.2177  55.9262 0001088  85.6206 274.4910 15.08833125 38755,6917.901,95.438,540.519,539.014,0.0
54064.0,STARLINK-5172,PAYLOAD,2023-06-26 01:24:29,15.08844585,0.0001226,53.2171,52.9513,89.8187,270.2946,1.9009e-05,1.5e-07,0.0,0 STARLINK-5172,1 54064U 22136P   23177.05867646  .00000015  00000-0  19009-4 0  9994,2 54064  53.2171  52.9513 0001226  89.8187 270.2946 15.08844585 38859,6917.866,95.437,540.58,538.883,0.0
54064.0,STARLINK-5172,PAYLOAD,2023-06-26 15:42:58,15.08831736,0.000144,53.2169,50.2746,87.0582,273.0575,-5.6918e-06,-3.78e-06,0.0,0 STARLINK-5172,1 54064U 22136P   23177.65484647 -.00000378  00000-0 -56918-5 0  9991,2 54064  53.2169  50.2746 0001440  87.0582 273.0575 15.08831736 38945,6917.906,95.438,540.767,538.774,0.0
54064.0,STARLINK-5172,PAYLOAD,2023-06-27 01:15:16,15.08842602,0.0001205,53.2174,48.4916,89.2815,270.8315,-2.0501e-06,-3.2e-06,0.0,0 STARLINK-5172,1 54064U 22136P   23178.05227955 -.00000320  00000-0 -20501-5 0  9999,2 54064  53.2174  48.4916 0001205  89.2815 270.8315 15.08842602 39000,6917.872,95.437,540.571,538.904,0.0
54064.0,STARLINK-5172,PAYLOAD,2023-06-27 20:19:55,15.08834435,0.0001151,53.2174,44.9237,85.8141,274.2982,2.5643e-05,1.2e-06,0.0,0 STARLINK-5172,1 54064U 22136P   23178.84716467  .00000120  00000-0  25643-4 0  9994,2 54064  53.2174  44.9237 0001151  85.8141 274.2982 15.08834435 39127,6917.897,95.438,540.559,538.966,0.0
54064.0,STARLINK-5172,PAYLOAD,2023-06-28 01:06:03,15.08843074,0.0001199,53.2179,44.0298,88.2362,271.8767,1.2451e-05,-9e-07,0.0,0 STARLINK-5172,1 54064U 22136P   23179.04587959 -.00000090  00000-0  12451-4 0  9999,2 54064  53.2179  44.0298 0001199  88.2362 271.8767 15.08843074 39150,6917.871,95.437,540.565,538.907,0.0
54064.0,STARLINK-5172,PAYLOAD,2023-06-28 18:35:19,15.08831557,9.53e-05,53.2176,40.7565,110.1298,249.9796,2.4113e-05,9.6e-07,0.0,0 STARLINK-5172,1 54064U 22136P   23179.77452614  .00000096  00000-0  24113-4 0  9991,2 54064  53.2176  40.7565 0000953 110.1298 249.9796 15.08831557 39260,6917.906,95.438,540.43,539.112,0.0
54064.0,STARLINK-5172,PAYLOAD,2023-06-28 23:21:28,15.08840904,0.0001032,53.2177,39.8662,86.1655,273.9455,8.085e-06,-1.59e-06,0.0,0 STARLINK-5172,1 54064U 22136P   23179.97324215 -.00000159  00000-0  80850-5 0  9990,2 54064  53.2177  39.8662 0001032  86.1655 273.9455 15.08840904 39294,6917.878,95.437,540.457,539.029,0.0
